{"type": "FeatureCollection", "features": [ {"type": "Feature", "properties": {"norad_id": 33153, "name": "INTELSAT 25 (IS-25)", "group": "intelsat", "lat": -2.1084439341117944, "lon": -24.07832508888819, "alt_km": 35780.61763712346, "timestamp": "2025-12-04T19:33:59.298744+00:00", "meta": {"OBJECT_NAME": "INTELSAT 25 (IS-25)", "OBJECT_ID": "2008-034A", "EPOCH": "2025-12-04T06:43:41.394144", "MEAN_MOTION": 1.00271178, "ECCENTRICITY": 0.00053971, "INCLINATION": 2.2043, "RA_OF_ASC_NODE": 82.7431, "ARG_OF_PERICENTER": 178.3332, "MEAN_ANOMALY": 241.7118, "EPHEMERIS_TYPE": 0, "CLASSIFICATION_TYPE": "U", "NORAD_CAT_ID": 33153, "ELEMENT_SET_NO": 999, "REV_AT_EPOCH": 6374, "BSTAR": 0, "MEAN_MOTION_DOT": -2.09e-06, "MEAN_MOTION_DDOT": 0}, "tle": {"line1": "1 33153U 08034A   25338.28034021 -.00000209  00000+0  00000+0 0  9991", "line2": "2 33153   2.2043  82.7431 0005397 178.3332 241.7118  1.00271178 63745"}}, "geometry": {"type": "Point", "coordinates": [-24.07832508888819, -2.1084439341117944]}}, {"type": "Feature", "properties": {"norad_id": 33376, "name": "GALAXY 19 (G-19)", "group": "intelsat", "lat": -0.03175667104565989, "lon": -89.62984455009644, "alt_km": 35772.20779047286, "timestamp": "2025-12-04T19:33:59.298756+00:00", "meta": {"OBJECT_NAME": "GALAXY 19 (G-19)", "OBJECT_ID": "2008-045A", "EPOCH": "2025-12-04T06:24:58.187232", "MEAN_MOTION": 1.00270783, "ECCENTRICITY": 0.00033778, "INCLINATION": 0.0149, "RA_OF_ASC_NODE": 16.2013, "ARG_OF_PERICENTER": 246.4858, "MEAN_ANOMALY": 169.9049, "EPHEMERIS_TYPE": 0, "CLASSIFICATION_TYPE": "U", "NORAD_CAT_ID": 33376, "ELEMENT_SET_NO": 999, "REV_AT_EPOCH": 6294, "BSTAR": 0, "MEAN_MOTION_DOT": -1.23e-06, "MEAN_MOTION_DDOT": 0}, "tle": {"line1": "1 33376U 08045A   25338.26734013 -.00000123  00000+0  00000+0 0  9991", "line2": "2 33376   0.0149  16.2013 0003377 246.4858 169.9049  1.00270783 62945"}}, "geometry": {"type": "Point", "coordinates": [-89.62984455009644, -0.03175667104565989]}}, {"type": "Feature", "properties": {"norad_id": 35493, "name": "FM-5", "group": "intelsat", "lat": -0.014259591019005244, "lon": -78.77427051148497, "alt_km": 35788.762870566505, "timestamp": "2025-12-04T19:33:59.298766+00:00", "meta": {"OBJECT_NAME": "FM-5", "OBJECT_ID": "2009-034A", "EPOCH": "2025-12-04T06:28:05.388384", "MEAN_MOTION": 1.00269426, "ECCENTRICITY": 0.00011086, "INCLINATION": 0.02, "RA_OF_ASC_NODE": 287.2113, "ARG_OF_PERICENTER": 238.7, "MEAN_ANOMALY": 278.3151, "EPHEMERIS_TYPE": 0, "CLASSIFICATION_TYPE": "U", "NORAD_CAT_ID": 35493, "ELEMENT_SET_NO": 999, "REV_AT_EPOCH": 4469, "BSTAR": 0, "MEAN_MOTION_DOT": -1.84e-06, "MEAN_MOTION_DDOT": 0}, "tle": {"line1": "1 35493U 09034A   25338.26950681 -.00000184  00000+0  00000+0 0  9990", "line2": "2 35493   0.0200 287.2113 0001108 238.7000 278.3151  1.00269426 44692"}}, "geometry": {"type": "Point", "coordinates": [-78.77427051148497, -0.014259591019005244]}}, {"type": "Feature", "properties": {"norad_id": 36097, "name": "INTELSAT 14 (IS-14)", "group": "intelsat", "lat": 0.004343622685876561, "lon": -37.606415367965454, "alt_km": 35781.68339720901, "timestamp": "2025-12-04T19:33:59.298777+00:00", "meta": {"OBJECT_NAME": "INTELSAT 14 (IS-14)", "OBJECT_ID": "2009-064A", "EPOCH": "2025-12-04T06:39:49.264992", "MEAN_MOTION": 1.00271071, "ECCENTRICITY": 0.00026882, "INCLINATION": 0.0137, "RA_OF_ASC_NODE": 310.0555, "ARG_OF_PERICENTER": 306.4876, "MEAN_ANOMALY": 231.772, "EPHEMERIS_TYPE": 0, "CLASSIFICATION_TYPE": "U", "NORAD_CAT_ID": 36097, "ELEMENT_SET_NO": 999, "REV_AT_EPOCH": 5865, "BSTAR": 0, "MEAN_MOTION_DOT": -2.58e-06, "MEAN_MOTION_DDOT": 0}, "tle": {"line1": "1 36097U 09064A   25338.27765353 -.00000258  00000+0  00000+0 0  9997", "line2": "2 36097   0.0137 310.0555 0002688 306.4876 231.7720  1.00271071 58650"}}, "geometry": {"type": "Point", "coordinates": [-37.606415367965454, 0.004343622685876561]}}, {"type": "Feature", "properties": {"norad_id": 36106, "name": "INTELSAT 15 (IS-15)", "group": "intelsat", "lat": 0.03397858275892921, "lon": 92.5090720517889, "alt_km": 35796.4806296649, "timestamp": "2025-12-04T19:33:59.298788+00:00", "meta": {"OBJECT_NAME": "INTELSAT 15 (IS-15)", "OBJECT_ID": "2009-067A", "EPOCH": "2025-12-04T03:10:38.713728", "MEAN_MOTION": 1.0027022, "ECCENTRICITY": 0.00024584, "INCLINATION": 0.0139, "RA_OF_ASC_NODE": 336.3645, "ARG_OF_PERICENTER": 278.4254, "MEAN_ANOMALY": 311.2428, "EPHEMERIS_TYPE": 0, "CLASSIFICATION_TYPE": "U", "NORAD_CAT_ID": 36106, "ELEMENT_SET_NO": 999, "REV_AT_EPOCH": 3927, "BSTAR": 0, "MEAN_MOTION_DOT": -1.69e-06, "MEAN_MOTION_DDOT": 0}, "tle": {"line1": "1 36106U 09067A   25338.13239252 -.00000169  00000+0  00000+0 0  9991", "line2": "2 36106   0.0139 336.3645 0002458 278.4254 311.2428  1.00270220 39278"}}, "geometry": {"type": "Point", "coordinates": [92.5090720517889, 0.03397858275892921]}}, {"type": "Feature", "properties": {"norad_id": 36131, "name": "DIRECTV 12", "group": "intelsat", "lat": 0.0014660589724899001, "lon": -95.35587333696522, "alt_km": 35786.26417183995, "timestamp": "2025-12-04T19:33:59.298799+00:00", "meta": {"OBJECT_NAME": "DIRECTV 12", "OBJECT_ID": "2009-075A", "EPOCH": "2025-12-04T06:23:20.842944", "MEAN_MOTION": 1.00270945, "ECCENTRICITY": 8.61e-06, "INCLINATION": 0.0116, "RA_OF_ASC_NODE": 87.7232, "ARG_OF_PERICENTER": 96.3466, "MEAN_ANOMALY": 242.3934, "EPHEMERIS_TYPE": 0, "CLASSIFICATION_TYPE": "U", "NORAD_CAT_ID": 36131, "ELEMENT_SET_NO": 999, "REV_AT_EPOCH": 4459, "BSTAR": 0, "MEAN_MOTION_DOT": -8.8e-07, "MEAN_MOTION_DDOT": 0}, "tle": {"line1": "1 36131U 09075A   25338.26621346 -.00000088  00000+0  00000+0 0  9991", "line2": "2 36131   0.0116  87.7232 0000086  96.3466 242.3934  1.00270945 44598"}}, "geometry": {"type": "Point", "coordinates": [-95.35587333696522, 0.0014660589724899001]}}, {"type": "Feature", "properties": {"norad_id": 36397, "name": "INTELSAT 16 (IS-16)", "group": "intelsat", "lat": -0.01889661149161786, "lon": -68.83190022827874, "alt_km": 35778.08555667175, "timestamp": "2025-12-04T19:33:59.298810+00:00", "meta": {"OBJECT_NAME": "INTELSAT 16 (IS-16)", "OBJECT_ID": "2010-006A", "EPOCH": "2025-12-04T06:30:57.612960", "MEAN_MOTION": 1.00269649, "ECCENTRICITY": 0.00024234, "INCLINATION": 0.0101, "RA_OF_ASC_NODE": 321.3035, "ARG_OF_PERICENTER": 297.2807, "MEAN_ANOMALY": 196.3001, "EPHEMERIS_TYPE": 0, "CLASSIFICATION_TYPE": "U", "NORAD_CAT_ID": 36397, "ELEMENT_SET_NO": 999, "REV_AT_EPOCH": 5770, "BSTAR": 0, "MEAN_MOTION_DOT": -2.29e-06, "MEAN_MOTION_DDOT": 0}, "tle": {"line1": "1 36397U 10006A   25338.27150015 -.00000229  00000+0  00000+0 0  9999", "line2": "2 36397   0.0101 321.3035 0002423 297.2807 196.3001  1.00269649 57701"}}, "geometry": {"type": "Point", "coordinates": [-68.83190022827874, -0.01889661149161786]}}, {"type": "Feature", "properties": {"norad_id": 37185, "name": "XM-5", "group": "intelsat", "lat": -0.04215178438417886, "lon": -107.82326484034476, "alt_km": 35787.40133632079, "timestamp": "2025-12-04T19:33:59.298820+00:00", "meta": {"OBJECT_NAME": "XM-5", "OBJECT_ID": "2010-053A", "EPOCH": "2025-12-04T04:37:07.552992", "MEAN_MOTION": 1.00269497, "ECCENTRICITY": 0.00012779, "INCLINATION": 0.06, "RA_OF_ASC_NODE": 273.4214, "ARG_OF_PERICENTER": 241.3568, "MEAN_ANOMALY": 232.5796, "EPHEMERIS_TYPE": 0, "CLASSIFICATION_TYPE": "U", "NORAD_CAT_ID": 37185, "ELEMENT_SET_NO": 999, "REV_AT_EPOCH": 5552, "BSTAR": 0, "MEAN_MOTION_DOT": -7e-08, "MEAN_MOTION_DDOT": 0}, "tle": {"line1": "1 37185U 10053A   25338.19244853 -.00000007  00000+0  00000+0 0  9996", "line2": "2 37185   0.0600 273.4214 0001277 241.3568 232.5796  1.00269497 55520"}}, "geometry": {"type": "Point", "coordinates": [-107.82326484034476, -0.04215178438417886]}}, {"type": "Feature", "properties": {"norad_id": 37238, "name": "INTELSAT 17 (IS-17)", "group": "intelsat", "lat": 0.02561006896369071, "lon": 73.34867401641613, "alt_km": 35796.55115374213, "timestamp": "2025-12-04T19:33:59.298831+00:00", "meta": {"OBJECT_NAME": "INTELSAT 17 (IS-17)", "OBJECT_ID": "2010-065B", "EPOCH": "2025-12-04T03:45:57.456000", "MEAN_MOTION": 1.00269312, "ECCENTRICITY": 0.0002322, "INCLINATION": 0.0139, "RA_OF_ASC_NODE": 286.2982, "ARG_OF_PERICENTER": 322.1387, "MEAN_ANOMALY": 307.283, "EPHEMERIS_TYPE": 0, "CLASSIFICATION_TYPE": "U", "NORAD_CAT_ID": 37238, "ELEMENT_SET_NO": 999, "REV_AT_EPOCH": 5129, "BSTAR": 0, "MEAN_MOTION_DOT": 1.5e-07, "MEAN_MOTION_DDOT": 0}, "tle": {"line1": "1 37238U 10065B   25338.15691500  .00000015  00000+0  00000+0 0  9997", "line2": "2 37238   0.0139 286.2982 0002322 322.1387 307.2830  1.00269312 51294"}}, "geometry": {"type": "Point", "coordinates": [73.34867401641613, 0.02561006896369071]}}, {"type": "Feature", "properties": {"norad_id": 37392, "name": "INTELSAT 28 (IS-28)", "group": "intelsat", "lat": -1.2242165477496654, "lon": -24.300714815683204, "alt_km": 35782.499030731364, "timestamp": "2025-12-04T19:33:59.298842+00:00", "meta": {"OBJECT_NAME": "INTELSAT 28 (IS-28)", "OBJECT_ID": "2011-016A", "EPOCH": "2025-12-04T06:43:33.905856", "MEAN_MOTION": 1.00271033, "ECCENTRICITY": 0.00041248, "INCLINATION": 1.3011, "RA_OF_ASC_NODE": 85.1581, "ARG_OF_PERICENTER": 173.8071, "MEAN_ANOMALY": 243.578, "EPHEMERIS_TYPE": 0, "CLASSIFICATION_TYPE": "U", "NORAD_CAT_ID": 37392, "ELEMENT_SET_NO": 999, "REV_AT_EPOCH": 5133, "BSTAR": 0, "MEAN_MOTION_DOT": -2.1e-06, "MEAN_MOTION_DDOT": 0}, "tle": {"line1": "1 37392U 11016A   25338.28025354 -.00000210  00000+0  00000+0 0  9995", "line2": "2 37392   1.3011  85.1581 0004124 173.8071 243.5780  1.00271033 51336"}}, "geometry": {"type": "Point", "coordinates": [-24.300714815683204, -1.2242165477496654]}}]}